******************************************************************************* Revised: Dec 02, 2013              Jupiter                                 599  PHYSICAL DATA (updated 2009-Jan-28):  Mass (10^24 kg)       =  1898.13+-.19   Density (g/cm^3)       =  1.326  Equat. radius (1 bar) = 71492+-4 km     Polar radius (km)      = 66854+-10  Volumetric mean radius= 69911+-6 km     Flattening             =  0.06487  Rotation period       = 9h 55m 29.685s  Rot. rate(10^-4 rad/s) =  1.75865  m = w^2a^3/GM         =  0.089195       Hydrostatic flat., fh  =  0.06509  Inferred rot. period  =  9.894+-0.02 hr ks = 3*J2/m            =  0.494  Mom. of inert. I/MRo^2=  0.254          I/MRo^2 (upper bound)  =  0.267   Rocky core mass (Mc/M)=  0.0261         Y factor (He/H ratio)  =  0.18+-0.04  GM (km^3/s^2)         = 126,686,511     GM 1-sigma (km^3/s^2)  = +-100  Equ. grav, ge (m/s^2) = 24.79           Pol. grav, gp (m/s^2)  = 28.34  Geometric albedo      =  0.52           Visual magnitude V(1,0)= -9.40  Vis. mag. (opposition)= -2.70           Obliquity to orbit     =  3.12 deg  Sidereal orbit period = 11.862615 yr    Sidereal orbit period  = 4332.820 d  Mean daily motion     = 0.0831294 deg/d Mean orbit velocity    = 13.0697 km/s  Atmos. temp. (1 bar)  = 165+-5 K        Heat flow/mass (x10^7) = 15 erg/gm*s  Planetary Solar Const =  50.5 W/m^2     Dipole tilt/offset     = 9.6deg/0.1Rp   Escape velocity (km/s)=  59.5           Mag.dip.mom(gauss-Rp^3)= 4.2   A_roche(ice)/Rp       =  2.76           Hill's sphere rad. Rp  = 740*******************************************************************************  *******************************************************************************Ephemeris / WWW_USER Tue Sep  2 11:26:48 2014 Pasadena, USA      / Horizons    *******************************************************************************Target body name: Jupiter (599)                   {source: JUP310}Center body name: Solar System Barycenter (0)     {source: DE-0431LE-0431}Center-site name: BODY CENTER*******************************************************************************Start time      : A.D. 2012-Jan-01 00:00:00.0000 CT Stop  time      : A.D. 2012-Jan-02 00:00:00.0000 CT Step-size       : 60 minutes*******************************************************************************Center geodetic : 0.00000000,0.00000000,0.0000000 {E-lon(deg),Lat(deg),Alt(km)}Center cylindric: 0.00000000,0.00000000,0.0000000 {E-lon(deg),Dxy(km),Dz(km)}Center radii    : (undefined)                                                  Output units    : AU-D                                                         Output format   : 03Reference frame : ICRF/J2000.0                                                 Output type     : GEOMETRIC cartesian statesCoordinate systm: Ecliptic and Mean Equinox of Reference Epoch                 *******************************************************************************JDCT    X     Y     Z   VX    VY    VZ   LT    RG    RR*******************************************************************************$$SOE2455927.500000000 = A.D. 2012-Jan-01 00:00:00.0000 (CT)   3.752623029046242E+00  3.256206653388887E+00 -9.757736295280466E-02  -5.035553477441799E-03  6.060385936047500E-03  8.751321751278258E-05   2.870065528627483E-02  4.969364417052051E+00  1.667810377898539E-042455927.541666667 = A.D. 2012-Jan-01 01:00:00.0000 (CT)   3.752413206551392E+00  3.256459164065071E+00 -9.757371631342164E-02  -5.035927912074195E-03  6.060126409650544E-03  8.752544472398114E-05   2.870069542982492E-02  4.969371367692285E+00  1.668483865118379E-042455927.583333333 = A.D. 2012-Jan-01 02:00:00.0000 (CT)   3.752203368251862E+00  3.256711663903475E+00 -9.757006916844473E-02  -5.036312061929647E-03  6.059865476938890E-03  8.753747766349594E-05   2.870073558860579E-02  4.969378320969645E+00  1.669074895832601E-042455927.625000000 = A.D. 2012-Jan-01 03:00:00.0000 (CT)   3.751993513749443E+00  3.256964152815128E+00 -9.756642152697656E-02  -5.036705573357261E-03  6.059601689164436E-03  8.754926886065332E-05   2.870077576054718E-02  4.969385276525683E+00  1.669576667950533E-042455927.666666667 = A.D. 2012-Jan-01 04:00:00.0000 (CT)   3.751783642665221E+00  3.257216630652108E+00 -9.756277339997947E-02  -5.037107876201922E-03  6.059333671557041E-03  8.756077661562995E-05   2.870081594344037E-02  4.969392233977962E+00  1.669984493293624E-042455927.708333333 = A.D. 2012-Jan-01 05:00:00.0000 (CT)   3.751573754648265E+00  3.257469097211348E+00 -9.755912480001730E-02  -5.037518200665214E-03  6.059060156992362E-03  8.757196599291315E-05   2.870085613499020E-02  4.969399192929095E+00  1.670295890477772E-042455927.750000000 = A.D. 2012-Jan-01 06:00:00.0000 (CT)   3.751363849383520E+00  3.257721552239728E+00 -9.755547574095348E-02  -5.037935598433415E-03  6.058780014473084E-03  8.758280956541553E-05   2.870089633286873E-02  4.969406152976008E+00  1.670510611799819E-042455927.791666667 = A.D. 2012-Jan-01 07:00:00.0000 (CT)   3.751153926598741E+00  3.257973995440259E+00 -9.755182623762962E-02  -5.038358967087095E-03  6.058492272708885E-03  8.759328793232735E-05   2.870093653476867E-02  4.969413113719206E+00  1.670630613427253E-042455927.833333333 = A.D. 2012-Jan-01 08:00:00.0000 (CT)   3.750943986070367E+00  3.258226426479144E+00 -9.754817630552232E-02  -5.038787076935501E-03  6.058196139035677E-03  8.760339003084397E-05   2.870097673845557E-02  4.969420074771808E+00  1.670659976923150E-042455927.875000000 = A.D. 2012-Jan-01 09:00:00.0000 (CT)   3.750734027628231E+00  3.258478844993536E+00 -9.754452596039306E-02  -5.039218599533548E-03  6.057891013877174E-03  8.761311325942086E-05   2.870101694181762E-02  4.969427035768161E+00  1.670604789025784E-042455927.916666667 = A.D. 2012-Jan-01 10:00:00.0000 (CT)   3.750524051159067E+00  3.258731250599816E+00 -9.754087521793581E-02  -5.039652137239857E-03  6.057576500921768E-03  8.762246342803977E-05   2.870105714291209E-02  4.969433996371895E+00  1.670472985644076E-042455927.958333333 = A.D. 2012-Jan-01 11:00:00.0000 (CT)   3.750314056608758E+00  3.258983642902198E+00 -9.753722409343106E-02  -5.040086253260808E-03  6.057252413164954E-03  8.763145454922423E-05   2.870109734000758E-02  4.969440956283230E+00  1.670274165226572E-042455928.000000000 = A.D. 2012-Jan-01 12:00:00.0000 (CT)   3.750104043983354E+00  3.259236021501505E+00 -9.753357260140989E-02  -5.040519501698168E-03  6.056918774952265E-03  8.764010848213546E-05   2.870113753162164E-02  4.969447915245480E+00  1.670019376012510E-042455928.041666667 = A.D. 2012-Jan-01 13:00:00.0000 (CT)   3.749894013348820E+00  3.259488386003953E+00 -9.752992075533796E-02  -5.040950457176303E-03  6.056575820149701E-03  8.764845444110114E-05   2.870117771655274E-02  4.969454873050617E+00  1.669720881178992E-042455928.083333333 = A.D. 2012-Jan-01 14:00:00.0000 (CT)   3.749683964829584E+00  3.259740736029777E+00 -9.752626856732080E-02  -5.041377743669475E-03  6.056223986568039E-03  8.765652837928690E-05   2.870121789390660E-02  4.969461829543791E+00  1.669391905557861E-042455928.125000000 = A.D. 2012-Jan-01 15:00:00.0000 (CT)   3.749473898605895E+00  3.259993071221551E+00 -9.752261604783753E-02  -5.041800062180146E-03  6.055863906774335E-03  8.766437225797829E-05   2.870125806311605E-02  4.969468784626805E+00  1.669046367410609E-042455928.166666667 = A.D. 2012-Jan-01 16:00:00.0000 (CT)   3.749263814910068E+00  3.260245391252048E+00 -9.751896320550830E-02  -5.042216216935627E-03  6.055496395437984E-03  8.767203321207344E-05   2.870129822395442E-02  4.969475738260415E+00  1.668698598717626E-042455928.208333333 = A.D. 2012-Jan-01 17:00:00.0000 (CT)   3.749053714021663E+00  3.260497695831510E+00 -9.751531004689856E-02  -5.042625139772723E-03  6.055122433380388E-03  8.767956262291135E-05   2.870133837654206E-02  4.969482690465452E+00  1.668363057561834E-042455928.250000000 = A.D. 2012-Jan-01 18:00:00.0000 (CT)   3.748843596261698E+00  3.260749984714178E+00 -9.751165657635932E-02  -5.043025912368435E-03  6.054743148526194E-03  8.768701511042162E-05   2.870137852134580E-02  4.969489641322750E+00  1.668054036463494E-042455928.291666667 = A.D. 2012-Jan-01 19:00:00.0000 (CT)   3.748633461985983E+00  3.261002257703983E+00 -9.750800279591941E-02  -5.043417785948980E-03  6.054359793990399E-03  8.769444745791166E-05   2.870141865917152E-02  4.969496590971841E+00  1.667785370955076E-042455928.333333333 = A.D. 2012-Jan-01 20:00:00.0000 (CT)   3.748423311577703E+00  3.261254514659256E+00 -9.750434870521450E-02  -5.043800198069721E-03  6.053973723579366E-03  8.770191748437754E-05   2.870145879114966E-02  4.969503539608455E+00  1.667570153270713E-042455928.375000000 = A.D. 2012-Jan-01 21:00:00.0000 (CT)   3.748213145439355E+00  3.261506755496370E+00 -9.750069430147043E-02  -5.044172786004787E-03  6.053586365034845E-03  8.770948288134524E-05   2.870149891871402E-02  4.969510487480846E+00  1.667420456765269E-042455928.416666667 = A.D. 2012-Jan-01 22:00:00.0000 (CT)   3.748002963984216E+00  3.261758980192236E+00 -9.749703957953228E-02  -5.044535396217377E-03  6.053199191408650E-03  8.771720003358011E-05   2.870153904357404E-02  4.969517434884994E+00  1.667347077572380E-042455928.458333333 = A.D. 2012-Jan-01 23:00:00.0000 (CT)   3.747792767627508E+00  3.262011188785567E+00 -9.749338453194285E-02  -5.044888089299874E-03  6.052813691021391E-03  8.772512284585155E-05   2.870157916768124E-02  4.969524382158797E+00  1.667359301059203E-042455928.500000000 = A.D. 2012-Jan-02 00:00:00.0000 (CT)   3.747582556777463E+00  3.262263381376870E+00 -9.748972914907141E-02  -5.045231139677021E-03  6.052431336532040E-03  8.773330160107420E-05   2.870161929319037E-02  4.969531329675336E+00  1.667464701839294E-04$$EOE*******************************************************************************Coordinate system description:  Ecliptic and Mean Equinox of Reference Epoch    Reference epoch: J2000.0    xy-plane: plane of the Earth's orbit at the reference epoch    x-axis  : out along ascending node of instantaneous plane of the Earth's              orbit and the Earth's mean equator at the reference epoch    z-axis  : perpendicular to the xy-plane in the directional (+ or -) sense              of Earth's north pole at the reference epoch.Symbol meaning [1 au=149597870.700 km, 1 day=86400.0 s]:    JDCT     Epoch Julian Date, Coordinate Time      X      x-component of position vector (AU)                                     Y      y-component of position vector (AU)                                     Z      z-component of position vector (AU)                                     VX     x-component of velocity vector (AU/day)                                 VY     y-component of velocity vector (AU/day)                                 VZ     z-component of velocity vector (AU/day)                                 LT     One-way down-leg Newtonian light-time (day)                             RG     Range; distance from coordinate center (AU)                             RR     Range-rate; radial velocity wrt coord. center (AU/day)            Geometric states/elements have no aberration corrections applied. Computations by ...     Solar System Dynamics Group, Horizons On-Line Ephemeris System     4800 Oak Grove Drive, Jet Propulsion Laboratory     Pasadena, CA  91109   USA     Information: http://ssd.jpl.nasa.gov/     Connect    : telnet://ssd.jpl.nasa.gov:6775  (via browser)                  telnet ssd.jpl.nasa.gov 6775    (via command-line)     Author     : Jon.Giorgini@jpl.nasa.gov*******************************************************************************